[{"OBJECT_NAME":"STARLINK-34516","OBJECT_ID":"2025-137M","EPOCH":"2026-03-09T22:01:06.852288","MEAN_MOTION":15.30227626,"ECCENTRICITY":9.217e-5,"INCLINATION":53.1592,"RA_OF_ASC_NODE":333.9073,"ARG_OF_PERICENTER":67.6959,"MEAN_ANOMALY":292.414,"EPHEMERIS_TYPE":0,"CLASSIFICATION_TYPE":"U","NORAD_CAT_ID":64605,"ELEMENT_SET_NO":999,"REV_AT_EPOCH":4087,"BSTAR":0.00082382534,"MEAN_MOTION_DOT":0.0002414,"MEAN_MOTION_DDOT":0},{"OBJECT_NAME":"OBJECT N","OBJECT_ID":"2019-093N","EPOCH":"2026-03-09T21:41:56.087232","MEAN_MOTION":15.29897693,"ECCENTRICITY":0.0006278,"INCLINATION":98.0505,"RA_OF_ASC_NODE":226.9456,"ARG_OF_PERICENTER":33.3806,"MEAN_ANOMALY":326.7828,"EPHEMERIS_TYPE":0,"CLASSIFICATION_TYPE":"U","NORAD_CAT_ID":44891,"ELEMENT_SET_NO":999,"REV_AT_EPOCH":33957,"BSTAR":0.0010567776,"MEAN_MOTION_DOT":0.00030617,"MEAN_MOTION_DDOT":0}]
